STARLINK-2454           
1 48116U 21027AA  23227.93408412  .00018198  00000+0  12368-2 0  9997
2 48116  53.0529  56.8750 0000920  75.8400 284.2691 15.06419920130825
STARLINK-2455           
1 48117U 21027AB  23228.43626948 -.00000742  00000+0 -30893-4 0  9993
2 48117  53.0576  34.6129 0001793  90.8440 269.2754 15.06397049131182
STARLINK-2458           
1 48118U 21027AC  23228.44827005  .00012532  00000+0  85837-3 0  9997
2 48118  53.0488  34.5710 0003104  82.6876 277.4466 15.06413722131188
STARLINK-2459           
1 48119U 21027AD  23228.44364751  .00011781  00000+0  80825-3 0  9999
2 48119  53.0505  34.5802 0002784  76.9439 283.1861 15.06409494131189
STARLINK-2460           
1 48120U 21027AE  23228.25107809  .00003310  00000+0  24105-3 0  9997
2 48120  53.0545  55.4571 0002052  82.3446 277.7776 15.06395611130871
STARLINK-2462           
1 48121U 21027AF  23227.89076725  .00019768  00000+0  13412-2 0  9991
2 48121  53.0535  47.0756 0000433  91.6496 268.4543 15.06429809130968
STARLINK-2463           
1 48122U 21027AG  23228.22112272  .00000515  00000+0  53446-4 0  9991
2 48122  53.0578  40.5629 0001144  62.7011 297.4095 15.06399392131086
STARLINK-2464           
1 48123U 21027AH  23228.16445150  .00009385  00000+0  64780-3 0  9995
2 48123  53.0558  35.8437 0000706   9.9167 350.1836 15.06417698131133
STARLINK-2465           
1 48124U 21027AJ  23228.22987919  .00012057  00000+0  82671-3 0  9996
2 48124  53.0533  45.5503 0000756  76.2198 283.8875 15.06410453131019
STARLINK-2466           
1 48125U 21027AK  23228.24373661 -.00001277  00000+0 -66829-4 0  9994
2 48125  53.0539  55.7327 0001913  92.3771 267.7437 15.06391906130874
STARLINK-2467           
1 48126U 21027AL  23228.46302258  .00012851  00000+0  87992-3 0  9994
2 48126  53.0546  34.5059 0000813  58.3576 301.7492 15.06404169131184
STARLINK-2468           
1 48127U 21027AM  23228.25476396  .00007874  00000+0  54690-3 0  9995
2 48127  53.0532  55.4372 0001713  81.6393 278.4790 15.06401304130870
STARLINK-2469           
1 48128U 21027AN  23228.36811718 -.00003103  00000+0 -18959-3 0  9990
2 48128  53.0548 345.0184 0001173  73.0659 287.0458 15.06384943131874
STARLINK-2471           
1 48129U 21027AP  23228.24739222  .00007122  00000+0  49645-3 0  9996
2 48129  53.0528  55.4725 0001222  76.5698 283.5427 15.06404398130875
STARLINK-2472           
1 48130U 21027AQ  23228.23677424  .00000964  00000+0  83674-4 0  9990
2 48130  53.0547  60.5161 0004134  73.2786 286.8656 15.06396267130804
STARLINK-2473           
1 48131U 21027AR  23228.19025364 -.00011338  00000+0 -74308-3 0  9998
2 48131  53.0519  35.7282 0001478  71.3853 288.7296 15.06418371131144
STARLINK-2474           
1 48132U 21027AS  23228.23632675  .00004646  00000+0  33048-3 0  9991
2 48132  53.0537  55.5205 0001119  83.5976 276.5140 15.06409572130878
STARLINK-2475           
1 48133U 21027AT  23228.23265322  .00004147  00000+0  29726-3 0  9997
2 48133  53.0554  55.5366 0002559  87.9104 272.2178 15.06388212130877
STARLINK-2476           
1 48134U 21027AU  23227.55444638  .00009700  00000+0  66925-3 0  9993
2 48134  53.0554  58.5816 0001162  91.7014 268.4108 15.06396196130772
STARLINK-2478           
1 48135U 21027AV  23227.95391459  .00013501  00000+0  92315-3 0  9996
2 48135  53.0533  61.9543 0000992  87.7686 272.3416 15.06415197130752
STARLINK-2479           
1 48136U 21027AW  23228.24275867  .00004229  00000+0  30266-3 0  9998
2 48136  53.0511  55.4842 0002189  87.0003 273.1236 15.06398614130871
STARLINK-2480           
1 48137U 21027AX  23228.46670341  .00009230  00000+0  63751-3 0  9991
2 48137  53.0542  34.4606 0002163  85.6472 274.4764 15.06411290131188
STARLINK-2481           
1 48138U 21027AY  23227.23376045  .00008618  00000+0  59689-3 0  9994
2 48138  53.0536  60.0220 0001253  78.7508 281.3621 15.06391275130729
STARLINK-2482           
1 48139U 21027AZ  23227.75531617  .00019576  00000+0  13288-2 0  9999
2 48139  53.0545  37.6801 0001033  69.6822 290.4278 15.06418352131084
STARLINK-2483           
1 48140U 21027BA  23228.25381932  .00005939  00000+0  41725-3 0  9996
2 48140  53.0539  55.4447 0002006  82.7895 277.3322 15.06399571130871
STARLINK-2484           
1 48141U 21027BB  23228.47587881  .00016945  00000+0  11520-2 0  9990
2 48141  53.0537  54.4427 0000907  67.5473 292.5612 15.06455518130918
STARLINK-2485           
1 48142U 21027BC  23227.88431864  .00021690  00000+0  14694-2 0  9992
2 48142  53.0543  37.0976 0001077  78.0843 282.0267 15.06428478131106
STARLINK-2486           
1 48143U 21027BD  23228.06629468 -.00002931  00000+0 -17802-3 0  9997
2 48143  53.0557 351.2870 0000328  34.4352 325.6658 15.06389482131755
STARLINK-2487           
1 48144U 21027BE  23228.42246624 -.00000453  00000+0 -11463-4 0  9992
2 48144  53.0533  34.6830 0002366  96.2252 263.9006 15.06407824131186
STARLINK-2488           
1 48145U 21027BF  23228.16076841 -.00005978  00000+0 -38283-3 0  9991
2 48145  53.0555  35.8598 0001001  82.5067 277.6035 15.06393147131144
STARLINK-2489           
1 48146U 21027BG  23228.22527918  .00007921  00000+0  55018-3 0  9998
2 48146  53.0527  55.5718 0001618  82.8919 277.2253 15.06393094130878
STARLINK-2490           
1 48147U 21027BH  23227.95757271  .00017318  00000+0  11776-2 0  9998
2 48147  53.0550  61.7736 0001031  80.9405 279.1701 15.06433728130768
STARLINK-2491           
1 48148U 21027BJ  23227.86036165  .00016560  00000+0  11273-2 0  9991
2 48148  53.0525  57.2078 0000702  94.9752 265.1317 15.06424085130814
STARLINK-2492           
1 48149U 21027BK  23228.47038768  .00003623  00000+0  26198-3 0  9990
2 48149  53.0466  34.4661 0002998  87.7097 272.4235 15.06407287131181
STARLINK-2493           
1 48150U 21027BL  23228.20868493  .00013095  00000+0  89596-3 0  9994
2 48150  53.0511  35.6437 0002109  83.7333 276.3896 15.06418157131152
STARLINK-2503           
1 48151U 21027BM  23227.74794551  .00020377  00000+0  13820-2 0  9993
2 48151  53.0545  37.7150 0001245  81.9783 278.1348 15.06424815131086
SHIYAN 6 03 (SY-6 03)   
1 48157U 21028A   23228.43160228 -.00000004  00000+0  44445-4 0  9990
2 48157  99.5166 226.1235 0111251 265.5156  93.3275 13.71779555117070
ONEWEB-0176             
1 48210U 21031A   23228.29127059  .00000100  00000+0  23655-3 0  9998
2 48210  87.9045 135.8997 0001950  77.8433 282.2916 13.14505081113518
ONEWEB-0184             
1 48211U 21031B   23227.27636256  .00000286  00000+0  73803-3 0  9995
2 48211  87.9048 136.0796 0002512 104.6555 255.4854 13.14501651112062
ONEWEB-0179             
1 48212U 21031C   23228.31030531 -.00000117  00000+0 -34915-3 0  9992
2 48212  87.9047 135.8697 0002224  73.3447 286.7927 13.14503102112242
ONEWEB-0180             
1 48213U 21031D   23228.03966216  .00000265  00000+0  68060-3 0  9990
2 48213  87.9048 135.9259 0002215  75.1284 285.0091 13.14501764112097
ONEWEB-0218             
1 48214U 21031E   23228.28915732  .00000168  00000+0  41815-3 0  9996
2 48214  87.9045 135.8789 0002934  95.7506 264.3958 13.14504708112289
ONEWEB-0209             
1 48215U 21031F   23227.74577162  .00000278  00000+0  71634-3 0  9992
2 48215  87.9049 136.0263 0002079  75.0298 285.1061 13.14501122112219
ONEWEB-0198             
1 48216U 21031G   23228.26378474  .00000342  00000+0  88667-3 0  9992
2 48216  87.9045 135.9320 0002454  83.4026 276.7383 13.14500879112375
ONEWEB-0189             
1 48217U 21031H   23228.04811570  .00000327  00000+0  84834-3 0  9993
2 48217  87.9044 135.9547 0002526  80.9670 279.1745 13.14500416112100
ONEWEB-0196             
1 48218U 21031J   23227.26578987  .00000212  00000+0  53729-3 0  9991
2 48218  87.9049 136.1033 0002104  81.8976 278.2392 13.14505081111997
ONEWEB-0183             
1 48219U 21031K   23228.30397282 -.00002063  00000+0 -56003-2 0  9990
2 48219  87.9049 135.9160 0002471  64.8883 295.2503 13.14489257112238
ONEWEB-0185             
1 48220U 21031L   23228.25637476  .00000183  00000+0  45965-3 0  9993
2 48220  87.9045 135.9016 0002136  72.5212 287.6151 13.14505345112158
ONEWEB-0187             
1 48221U 21031M   23228.30712820 -.00000136  00000+0 -40095-3 0  9996
2 48221  87.9050 135.9195 0002125  75.7052 284.4313 13.14499355112178
ONEWEB-0192             
1 48222U 21031N   23227.74787084  .00000195  00000+0  49137-3 0  9997
2 48222  87.9090 135.9753 0002107  82.0722 278.0647 13.14499617112022
ONEWEB-0219             
1 48223U 21031P   23227.27213729  .00000189  00000+0  47450-3 0  9995
2 48223  87.9045 136.1016 0002195  75.3905 284.7468 13.14501035112161
ONEWEB-0202             
1 48224U 21031Q   23228.24052992 -.00000124  00000+0 -36949-3 0  9999
2 48224  87.9047 135.9286 0002995  88.3214 271.8258 13.14503063112274
ONEWEB-0204             
1 48225U 21031R   23228.04613766  .00000222  00000+0  56429-3 0  9992
2 48225  87.9047 135.9797 0001554  62.9385 297.1903 13.14504560112146
ONEWEB-0205             
1 48226U 21031S   23228.25109018  .00000081  00000+0  18516-3 0  9994
2 48226  87.9045 135.9079 0002252  77.2624 282.8757 13.14500573112181
ONEWEB-0206             
1 48227U 21031T   23228.29971271 -.00000081  00000+0 -25415-3 0  9995
2 48227  87.9049 135.8822 0002102  70.4663 289.6693 13.14503879112145
ONEWEB-0182             
1 48228U 21031U   23228.29339281  .00000185  00000+0  46324-3 0  9990
2 48228  87.8929 135.9566 0002756  57.0152 303.1242 13.14498796112353
ONEWEB-0186             
1 48229U 21031V   23228.30607447 -.00000098  00000+0 -29831-3 0  9994
2 48229  87.9046 135.8709 0002142  77.5742 282.5627 13.14501425112300
ONEWEB-0181             
1 48230U 21031W   23228.28280953  .00000247  00000+0  63183-3 0  9994
2 48230  87.9051 135.9468 0002085  81.2761 278.8605 13.14500467112152
ONEWEB-0188             
1 48231U 21031X   23228.01851876 -.00000045  00000+0 -15684-3 0  9995
2 48231  87.9048 135.9988 0002079  74.5524 285.5836 13.14500880112016
